ALOS (DAICHI)           
1 28931U 06002A   24291.57972922  .00004677  00000+0  84462-3 0  9992
2 28931  98.0510 242.1861 0002717  91.2474 268.9041 14.66906827998911
